{"type": "FeatureCollection", "features": [ {"type": "Feature", "properties": {"norad_id": 66625, "name": "STARLINK-35929", "group": "last-30-days", "lat": -12.51069272432121, "lon": 109.57932105273612, "alt_km": 449.46680892910445, "timestamp": "2025-12-27T02:10:14.905892+00:00", "meta": {"OBJECT_NAME": "STARLINK-35929", "OBJECT_ID": "2025-271J", "EPOCH": "2025-12-26T15:20:00.070080", "MEAN_MOTION": 15.39616872, "ECCENTRICITY": 0.0001083, "INCLINATION": 53.16, "RA_OF_ASC_NODE": 121.2837, "ARG_OF_PERICENTER": 75.7835, "MEAN_ANOMALY": 284.329, "EPHEMERIS_TYPE": 0, "CLASSIFICATION_TYPE": "U", "NORAD_CAT_ID": 66625, "ELEMENT_SET_NO": 999, "REV_AT_EPOCH": 635, "BSTAR": 0.0016868, "MEAN_MOTION_DOT": 0.00067664, "MEAN_MOTION_DDOT": 0}, "tle": {"line1": "1 66625U 25271J   25360.63888970  .00067664  00000+0  16868-2 0  9996", "line2": "2 66625  53.1600 121.2837 0001083  75.7835 284.3290 15.39616872  6353"}}, "geometry": {"type": "Point", "coordinates": [109.57932105273612, -12.51069272432121]}}, {"type": "Feature", "properties": {"norad_id": 66626, "name": "STARLINK-35902", "group": "last-30-days", "lat": -53.04587633789684, "lon": 24.56137572020583, "alt_km": 452.62446831066427, "timestamp": "2025-12-27T02:10:14.905908+00:00", "meta": {"OBJECT_NAME": "STARLINK-35902", "OBJECT_ID": "2025-271K", "EPOCH": "2025-12-26T17:13:32.303136", "MEAN_MOTION": 15.39639162, "ECCENTRICITY": 0.0001273, "INCLINATION": 53.1599, "RA_OF_ASC_NODE": 121.0651, "ARG_OF_PERICENTER": 53.5743, "MEAN_ANOMALY": 306.5379, "EPHEMERIS_TYPE": 0, "CLASSIFICATION_TYPE": "U", "NORAD_CAT_ID": 66626, "ELEMENT_SET_NO": 999, "REV_AT_EPOCH": 636, "BSTAR": 0.0011857, "MEAN_MOTION_DOT": 0.00047354, "MEAN_MOTION_DDOT": 0}, "tle": {"line1": "1 66626U 25271K   25360.71773499  .00047354  00000+0  11857-2 0  9992", "line2": "2 66626  53.1599 121.0651 0001273  53.5743 306.5379 15.39639162  6369"}}, "geometry": {"type": "Point", "coordinates": [24.56137572020583, -53.04587633789684]}}, {"type": "Feature", "properties": {"norad_id": 66627, "name": "STARLINK-35904", "group": "last-30-days", "lat": -31.964789295227447, "lon": 91.31153525515744, "alt_km": 451.30763339745863, "timestamp": "2025-12-27T02:10:14.905918+00:00", "meta": {"OBJECT_NAME": "STARLINK-35904", "OBJECT_ID": "2025-271L", "EPOCH": "2025-12-26T15:26:41.290080", "MEAN_MOTION": 15.39625966, "ECCENTRICITY": 0.0001228, "INCLINATION": 53.1601, "RA_OF_ASC_NODE": 121.3118, "ARG_OF_PERICENTER": 69.8417, "MEAN_ANOMALY": 290.272, "EPHEMERIS_TYPE": 0, "CLASSIFICATION_TYPE": "U", "NORAD_CAT_ID": 66627, "ELEMENT_SET_NO": 999, "REV_AT_EPOCH": 631, "BSTAR": 0.0017396, "MEAN_MOTION_DOT": 0.00069836, "MEAN_MOTION_DDOT": 0}, "tle": {"line1": "1 66627U 25271L   25360.64353345  .00069836  00000+0  17396-2 0  9992", "line2": "2 66627  53.1601 121.3118 0001228  69.8417 290.2720 15.39625966  6314"}}, "geometry": {"type": "Point", "coordinates": [91.31153525515744, -31.964789295227447]}}, {"type": "Feature", "properties": {"norad_id": 66628, "name": "STARLINK-35862", "group": "last-30-days", "lat": 53.13273126976753, "lon": -152.3963694132496, "alt_km": 439.29523463414534, "timestamp": "2025-12-27T02:10:14.905928+00:00", "meta": {"OBJECT_NAME": "STARLINK-35862", "OBJECT_ID": "2025-271M", "EPOCH": "2025-12-26T20:00:01.999008", "MEAN_MOTION": 15.39573045, "ECCENTRICITY": 0.0001215, "INCLINATION": 53.1598, "RA_OF_ASC_NODE": 120.1602, "ARG_OF_PERICENTER": 82.9228, "MEAN_ANOMALY": 20.5166, "EPHEMERIS_TYPE": 0, "CLASSIFICATION_TYPE": "U", "NORAD_CAT_ID": 66628, "ELEMENT_SET_NO": 999, "REV_AT_EPOCH": 607, "BSTAR": 0.0017817, "MEAN_MOTION_DOT": 0.00071426, "MEAN_MOTION_DDOT": 0}, "tle": {"line1": "1 66628U 25271M   25360.83335647  .00071426  00000+0  17817-2 0  9995", "line2": "2 66628  53.1598 120.1602 0001215  82.9228  20.5166 15.39573045  6078"}}, "geometry": {"type": "Point", "coordinates": [-152.3963694132496, 53.13273126976753]}}, {"type": "Feature", "properties": {"norad_id": 66629, "name": "STARLINK-35956", "group": "last-30-days", "lat": 43.03315526085206, "lon": 162.7122596664593, "alt_km": 384.09645775977606, "timestamp": "2025-12-27T02:10:14.905938+00:00", "meta": {"OBJECT_NAME": "STARLINK-35956", "OBJECT_ID": "2025-271N", "EPOCH": "2025-12-26T19:45:33.882912", "MEAN_MOTION": 15.56992042, "ECCENTRICITY": 0.0009941, "INCLINATION": 53.1713, "RA_OF_ASC_NODE": 119.6055, "ARG_OF_PERICENTER": 28.5738, "MEAN_ANOMALY": 331.5818, "EPHEMERIS_TYPE": 0, "CLASSIFICATION_TYPE": "U", "NORAD_CAT_ID": 66629, "ELEMENT_SET_NO": 999, "REV_AT_EPOCH": 125, "BSTAR": 0.0065354, "MEAN_MOTION_DOT": 0.0051228, "MEAN_MOTION_DDOT": 0}, "tle": {"line1": "1 66629U 25271N   25360.82330883  .00512280  00000+0  65354-2 0  9999", "line2": "2 66629  53.1713 119.6055 0009941  28.5738 331.5818 15.56992042  1254"}}, "geometry": {"type": "Point", "coordinates": [162.7122596664593, 43.03315526085206]}}, {"type": "Feature", "properties": {"norad_id": 66630, "name": "STARLINK-35949", "group": "last-30-days", "lat": 47.366545893832985, "lon": -115.62340713768839, "alt_km": 440.6069924140029, "timestamp": "2025-12-27T02:10:14.905948+00:00", "meta": {"OBJECT_NAME": "STARLINK-35949", "OBJECT_ID": "2025-271P", "EPOCH": "2025-12-26T20:00:01.999008", "MEAN_MOTION": 15.39574507, "ECCENTRICITY": 5.14e-05, "INCLINATION": 53.1603, "RA_OF_ASC_NODE": 120.1111, "ARG_OF_PERICENTER": 81.7545, "MEAN_ANOMALY": 45.5972, "EPHEMERIS_TYPE": 0, "CLASSIFICATION_TYPE": "U", "NORAD_CAT_ID": 66630, "ELEMENT_SET_NO": 999, "REV_AT_EPOCH": 602, "BSTAR": 0.001892, "MEAN_MOTION_DOT": 0.00075923, "MEAN_MOTION_DDOT": 0}, "tle": {"line1": "1 66630U 25271P   25360.83335647  .00075923  00000+0  18920-2 0  9990", "line2": "2 66630  53.1603 120.1111 0000514  81.7545  45.5972 15.39574507  6024"}}, "geometry": {"type": "Point", "coordinates": [-115.62340713768839, 47.366545893832985]}}, {"type": "Feature", "properties": {"norad_id": 66631, "name": "STARLINK-35965", "group": "last-30-days", "lat": 46.47940978843826, "lon": -113.23897934753698, "alt_km": 440.77688624598704, "timestamp": "2025-12-27T02:10:14.905961+00:00", "meta": {"OBJECT_NAME": "STARLINK-35965", "OBJECT_ID": "2025-271Q", "EPOCH": "2025-12-26T20:00:01.999008", "MEAN_MOTION": 15.39541322, "ECCENTRICITY": 6.86e-05, "INCLINATION": 53.1601, "RA_OF_ASC_NODE": 120.1082, "ARG_OF_PERICENTER": 70.641, "MEAN_ANOMALY": 58.5892, "EPHEMERIS_TYPE": 0, "CLASSIFICATION_TYPE": "U", "NORAD_CAT_ID": 66631, "ELEMENT_SET_NO": 999, "REV_AT_EPOCH": 590, "BSTAR": 0.0022202, "MEAN_MOTION_DOT": 0.00089219, "MEAN_MOTION_DDOT": 0}, "tle": {"line1": "1 66631U 25271Q   25360.83335647  .00089219  00000+0  22202-2 0  9992", "line2": "2 66631  53.1601 120.1082 0000686  70.6410  58.5892 15.39541322  5908"}}, "geometry": {"type": "Point", "coordinates": [-113.23897934753698, 46.47940978843826]}}, {"type": "Feature", "properties": {"norad_id": 66632, "name": "STARLINK-35973", "group": "last-30-days", "lat": -27.868241787504047, "lon": -37.23283182376559, "alt_km": 452.1658115358505, "timestamp": "2025-12-27T02:10:14.905974+00:00", "meta": {"OBJECT_NAME": "STARLINK-35973", "OBJECT_ID": "2025-271R", "EPOCH": "2025-12-26T17:26:55.042080", "MEAN_MOTION": 15.39664523, "ECCENTRICITY": 0.0002173, "INCLINATION": 53.1617, "RA_OF_ASC_NODE": 121.127, "ARG_OF_PERICENTER": 35.2508, "MEAN_ANOMALY": 324.864, "EPHEMERIS_TYPE": 0, "CLASSIFICATION_TYPE": "U", "NORAD_CAT_ID": 66632, "ELEMENT_SET_NO": 999, "REV_AT_EPOCH": 632, "BSTAR": 0.0012861, "MEAN_MOTION_DOT": 0.00051467, "MEAN_MOTION_DDOT": 0}, "tle": {"line1": "1 66632U 25271R   25360.72702595  .00051467  00000+0  12861-2 0  9995", "line2": "2 66632  53.1617 121.1270 0002173  35.2508 324.8640 15.39664523  6320"}}, "geometry": {"type": "Point", "coordinates": [-37.23283182376559, -27.868241787504047]}}, {"type": "Feature", "properties": {"norad_id": 66633, "name": "STARLINK-35948", "group": "last-30-days", "lat": -29.201518422317562, "lon": -35.819296133589624, "alt_km": 451.4582679680543, "timestamp": "2025-12-27T02:10:14.905985+00:00", "meta": {"OBJECT_NAME": "STARLINK-35948", "OBJECT_ID": "2025-271S", "EPOCH": "2025-12-26T17:26:26.128320", "MEAN_MOTION": 15.39638494, "ECCENTRICITY": 0.0001081, "INCLINATION": 53.1606, "RA_OF_ASC_NODE": 121.1226, "ARG_OF_PERICENTER": 69.9057, "MEAN_ANOMALY": 290.2064, "EPHEMERIS_TYPE": 0, "CLASSIFICATION_TYPE": "U", "NORAD_CAT_ID": 66633, "ELEMENT_SET_NO": 999, "REV_AT_EPOCH": 636, "BSTAR": 0.0013683, "MEAN_MOTION_DOT": 0.00054759, "MEAN_MOTION_DDOT": 0}, "tle": {"line1": "1 66633U 25271S   25360.72669130  .00054759  00000+0  13683-2 0  9993", "line2": "2 66633  53.1606 121.1226 0001081  69.9057 290.2064 15.39638494  6368"}}, "geometry": {"type": "Point", "coordinates": [-35.819296133589624, -29.201518422317562]}}, {"type": "Feature", "properties": {"norad_id": 66634, "name": "STARLINK-35967", "group": "last-30-days", "lat": -45.68487708277473, "lon": -10.488589157777032, "alt_km": 452.18352951803354, "timestamp": "2025-12-27T02:10:14.905997+00:00", "meta": {"OBJECT_NAME": "STARLINK-35967", "OBJECT_ID": "2025-271T", "EPOCH": "2025-12-26T14:12:47.342304", "MEAN_MOTION": 15.39676406, "ECCENTRICITY": 0.0001064, "INCLINATION": 53.1614, "RA_OF_ASC_NODE": 121.7016, "ARG_OF_PERICENTER": 81.6663, "MEAN_ANOMALY": 278.4463, "EPHEMERIS_TYPE": 0, "CLASSIFICATION_TYPE": "U", "NORAD_CAT_ID": 66634, "ELEMENT_SET_NO": 999, "REV_AT_EPOCH": 630, "BSTAR": 0.0014187, "MEAN_MOTION_DOT": 0.00056878, "MEAN_MOTION_DDOT": 0}, "tle": {"line1": "1 66634U 25271T   25360.59221461  .00056878  00000+0  14187-2 0  9994", "line2": "2 66634  53.1614 121.7016 0001064  81.6663 278.4463 15.39676406  6306"}}, "geometry": {"type": "Point", "coordinates": [-10.488589157777032, -45.68487708277473]}}]}